TEXT,SPCL
"KMSN 062353Z 01003KT 10SM CLR 21/10 A2986 RMK AO2 SLP111 T02110100 10261 20211 58011 $","KMSN 071604Z 23009G18KT 2SM R36/3000VP6000FT -TSRA BKN027CB OVC080 22/18 A2966"